[{"OBJECT_NAME":"STARLINK-35631","OBJECT_ID":"2025-237H","EPOCH":"2026-03-09T22:11:23.438976","MEAN_MOTION":15.30224149,"ECCENTRICITY":0.00014792,"INCLINATION":53.1604,"RA_OF_ASC_NODE":38.7377,"ARG_OF_PERICENTER":95.9433,"MEAN_ANOMALY":264.1737,"EPHEMERIS_TYPE":0,"CLASSIFICATION_TYPE":"U","NORAD_CAT_ID":66121,"ELEMENT_SET_NO":999,"REV_AT_EPOCH":2264,"BSTAR":0.0013195166,"MEAN_MOTION_DOT":0.00038956,"MEAN_MOTION_DDOT":0},{"OBJECT_NAME":"OBJECT F","OBJECT_ID":"2021-022F","EPOCH":"2026-03-09T23:37:37.165152","MEAN_MOTION":15.31317672,"ECCENTRICITY":0.00120882,"INCLINATION":97.3982,"RA_OF_ASC_NODE":329.8375,"ARG_OF_PERICENTER":85.9268,"MEAN_ANOMALY":274.3355,"EPHEMERIS_TYPE":0,"CLASSIFICATION_TYPE":"U","NORAD_CAT_ID":47937,"ELEMENT_SET_NO":999,"REV_AT_EPOCH":27452,"BSTAR":0.00038690553,"MEAN_MOTION_DOT":0.00011656,"MEAN_MOTION_DDOT":0}]
